{"type": "FeatureCollection", "features": [{"type": "Feature", "geometry": {"type": "Point", "coordinates": [103.8460786, 22.3333038]}, "properties": {"tags": {"man_made": "tower", "tower:type": "communication"}}}, {"type": "Feature", "geometry": {"type": "Point", "coordinates": [103.9675609, 22.4908424]}, "properties": {"tags": {"man_made": "tower", "name": "Th\u00e1p Truy\u1ec1n h\u00ecnh L\u00e0o Cai", "tower:type": "communication"}}}, {"type": "Feature", "geometry": {"type": "Point", "coordinates": [103.9678296, 22.4924287]}, "properties": {"tags": {"man_made": "tower", "name": "Th\u00e1p Vi Ba", "tower:type": "communication"}}}, {"type": "Feature", "geometry": {"type": "Point", "coordinates": [103.6915772, 22.3500483]}, "properties": {"tags": {"man_made": "mast"}}}, {"type": "Feature", "geometry": {"type": "Point", "coordinates": [103.6972154, 22.3514109]}, "properties": {"tags": {"man_made": "mast"}}}, {"type": "Feature", "geometry": {"type": "Point", "coordinates": [103.7765855, 22.1498706]}, "properties": {"tags": {"man_made": "mast", "tower:type": "communication"}}}, {"type": "Feature", "geometry": {"type": "Point", "coordinates": [103.6658621, 22.3208996]}, "properties": {"tags": {"man_made": "mast"}}}, {"type": "Feature", "geometry": {"type": "Point", "coordinates": [103.6638331, 22.3173987]}, "properties": {"tags": {"man_made": "mast", "tower:type": "communication"}}}, {"type": "Feature", "geometry": {"type": "Point", "coordinates": [103.859968, 22.3569002]}, "properties": {"tags": {"man_made": "mast", "tower:type": "communication"}}}, {"type": "Feature", "geometry": {"type": "Point", "coordinates": [103.9680345, 22.4776264]}, "properties": {"tags": {"man_made": "tower", "tower:type": "communication"}}}, {"type": "Feature", "geometry": {"type": "Point", "coordinates": [103.9652387, 22.458196]}, "properties": {"tags": {"man_made": "mast", "tower:type": "communication"}}}, {"type": "Feature", "geometry": {"type": "Point", "coordinates": [104.0370828, 22.3864093]}, "properties": {"tags": {"man_made": "mast", "tower:type": "communication"}}}, {"type": "Feature", "geometry": {"type": "Point", "coordinates": [104.0470761, 22.3764737]}, "properties": {"tags": {"man_made": "mast", "tower:type": "communication"}}}, {"type": "Feature", "geometry": {"type": "Point", "coordinates": [104.0503332, 22.3793415]}, "properties": {"tags": {"man_made": "mast", "tower:type": "communication"}}}, {"type": "Feature", "geometry": {"type": "Point", "coordinates": [104.0838285, 22.3639903]}, "properties": {"tags": {"man_made": "mast", "tower:type": "communication"}}}, {"type": "Feature", "geometry": {"type": "Point", "coordinates": [104.1396688, 22.3434158]}, "properties": {"tags": {"man_made": "mast", "tower:type": "communication"}}}]}