<?xml version="1.0" encoding="UTF-8"?>
<gpx xmlns="http://www.topografix.com/GPX/1/1" version="1.1" creator="vmm-coverage fixture">
  <trk>
    <name>tiny-loop</name>
    <trkseg>
      <trkpt lat="22.0000" lon="103.0000"><ele>1000</ele></trkpt>
      <trkpt lat="22.0013" lon="103.0000"><ele>1010</ele></trkpt>
      <trkpt lat="22.0013" lon="103.0016"><ele>1020</ele></trkpt>
      <trkpt lat="22.0000" lon="103.0016"><ele>1005</ele></trkpt>
      <trkpt lat="22.0000" lon="103.0000"><ele>1000</ele></trkpt>
    </trkseg>
  </trk>
</gpx>
