<?xml version="1.0" encoding="UTF-8"?>
<gpx xmlns="http://www.topografix.com/GPX/1/1" xmlns:xsi="http://www.w3.org/2001/XMLSchema-instance" xsi:schemaLocation="http://www.topografix.com/GPX/1/1 http://www.topografix.com/GPX/1/1/gpx.xsd" version="1.1" creator="gpx.py -- https://github.com/tkrajina/gpxpy">
  <wpt lat="22.335186" lon="103.841252">
    <name>dense 71.0km @ km0.0</name>
  </wpt>
  <wpt lat="22.286787411425955" lon="103.91401029486289">
    <name>dense 31.5km @ km92.0</name>
  </wpt>
  <wpt lat="22.389728193390713" lon="103.85253382191053">
    <name>dense 19.2km @ km131.2</name>
  </wpt>
  <trk>
    <name>VMM coverage</name>
    <trkseg>
      <trkpt lat="22.335186" lon="103.841252">
        <ele>1489.70519184011</ele>
      </trkpt>
      <trkpt lat="22.336279462355943" lon="103.8400091872034">
        <ele>1509.5871662034635</ele>
      </trkpt>
      <trkpt lat="22.335492226026865" lon="103.84224917714884">
        <ele>1495.945883652417</ele>
      </trkpt>
      <trkpt lat="22.33557523811384" lon="103.84409321901785">
        <ele>1528.3499701091466</ele>
      </trkpt>
      <trkpt lat="22.33463250129494" lon="103.84605805282179">
        <ele>1574.09354828166</ele>
      </trkpt>
      <trkpt lat="22.33330753197994" lon="103.84782865522808">
        <ele>1608.830378724006</ele>
      </trkpt>
      <trkpt lat="22.33300327330726" lon="103.84941902572547">
        <ele>1650.3553723080483</ele>
      </trkpt>
      <trkpt lat="22.33329967154578" lon="103.85069397804398">
        <ele>1635.0405264213634</ele>
      </trkpt>
      <trkpt lat="22.333764878753232" lon="103.85297416657139">
        <ele>1682.749234609594</ele>
      </trkpt>
      <trkpt lat="22.333738398441366" lon="103.85533163283029">
        <ele>1722.9154520942202</ele>
      </trkpt>
      <trkpt lat="22.334525699272596" lon="103.8574337970904">
        <ele>1757.6925037168671</ele>
      </trkpt>
      <trkpt lat="22.33396679497498" lon="103.85937805996664">
        <ele>1814.0091181312794</ele>
      </trkpt>
      <trkpt lat="22.332427216123374" lon="103.86054224113799">
        <ele>1841.0012053649273</ele>
      </trkpt>
      <trkpt lat="22.331679802671314" lon="103.86270662537748">
        <ele>1886.567895406848</ele>
      </trkpt>
      <trkpt lat="22.330083745016857" lon="103.86386835132839">
        <ele>1889.3174742825772</ele>
      </trkpt>
      <trkpt lat="22.328550565443276" lon="103.86547596857719">
        <ele>1856.6824152899362</ele>
      </trkpt>
      <trkpt lat="22.328186664477833" lon="103.86751208119708">
        <ele>1810.233972460385</ele>
      </trkpt>
      <trkpt lat="22.32716564317859" lon="103.86941108808028">
        <ele>1769.6742765977024</ele>
      </trkpt>
      <trkpt lat="22.326819924202734" lon="103.87150426529043">
        <ele>1736.8111937061353</ele>
      </trkpt>
      <trkpt lat="22.326390294921733" lon="103.87279284316406">
        <ele>1700.4774300322836</ele>
      </trkpt>
      <trkpt lat="22.327345766925383" lon="103.87470852386078">
        <ele>1684.855899053606</ele>
      </trkpt>
      <trkpt lat="22.32583645701316" lon="103.8762400573158">
        <ele>1635.3786265570648</ele>
      </trkpt>
      <trkpt lat="22.32429738546013" lon="103.87684518436197">
        <ele>1603.1013971569885</ele>
      </trkpt>
      <trkpt lat="22.323074234977508" lon="103.8768852161436">
        <ele>1547.4459480162632</ele>
      </trkpt>
      <trkpt lat="22.322224695242717" lon="103.87650616189606">
        <ele>1493.8509233366913</ele>
      </trkpt>
      <trkpt lat="22.32245233406466" lon="103.87475100658196">
        <ele>1470.9645285895858</ele>
      </trkpt>
      <trkpt lat="22.321568287790104" lon="103.87303292570914">
        <ele>1464.0399897714053</ele>
      </trkpt>
      <trkpt lat="22.321992296956083" lon="103.87073797376915">
        <ele>1471.7088839449345</ele>
      </trkpt>
      <trkpt lat="22.321686850045907" lon="103.86854346672787">
        <ele>1485.3305529355064</ele>
      </trkpt>
      <trkpt lat="22.322705683175293" lon="103.86661005998056">
        <ele>1485.3933682936902</ele>
      </trkpt>
      <trkpt lat="22.32267313243408" lon="103.86429165542599">
        <ele>1481.3586080517189</ele>
      </trkpt>
      <trkpt lat="22.32364400761695" lon="103.86231740898499">
        <ele>1488.288360800259</ele>
      </trkpt>
      <trkpt lat="22.323424246263258" lon="103.86055153018431">
        <ele>1456.3073826520424</ele>
      </trkpt>
      <trkpt lat="22.323332114818008" lon="103.85833745927204">
        <ele>1445.2130033801313</ele>
      </trkpt>
      <trkpt lat="22.3228093776535" lon="103.8561764797763">
        <ele>1431.1814640910397</ele>
      </trkpt>
      <trkpt lat="22.32306091036236" lon="103.85559970148034">
        <ele>1414.7911210430814</ele>
      </trkpt>
      <trkpt lat="22.324975167821837" lon="103.85493724984248">
        <ele>1396.0494112743384</ele>
      </trkpt>
      <trkpt lat="22.32427491331861" lon="103.85437291999534">
        <ele>1382.0331103367928</ele>
      </trkpt>
      <trkpt lat="22.32232734387485" lon="103.85430439051264">
        <ele>1374.472807832678</ele>
      </trkpt>
      <trkpt lat="22.320706937997024" lon="103.85393697069216">
        <ele>1331.0362115623732</ele>
      </trkpt>
      <trkpt lat="22.319931195465088" lon="103.85256501291626">
        <ele>1275.4180604008757</ele>
      </trkpt>
      <trkpt lat="22.318506282247004" lon="103.85137594669253">
        <ele>1227.7239428786722</ele>
      </trkpt>
      <trkpt lat="22.316766463668976" lon="103.85142847221745">
        <ele>1182.832049248714</ele>
      </trkpt>
      <trkpt lat="22.316195992324914" lon="103.85078757906112">
        <ele>1132.624147541571</ele>
      </trkpt>
      <trkpt lat="22.315135768928723" lon="103.84972082894002">
        <ele>1092.2613891812255</ele>
      </trkpt>
      <trkpt lat="22.31639054758811" lon="103.84803363337664">
        <ele>1110.655037503696</ele>
      </trkpt>
      <trkpt lat="22.31751931284064" lon="103.84634173743187">
        <ele>1139.898646490161</ele>
      </trkpt>
      <trkpt lat="22.31944335199763" lon="103.84651600800082">
        <ele>1163.2751443650172</ele>
      </trkpt>
      <trkpt lat="22.320636978102524" lon="103.8465234795616">
        <ele>1156.591210003839</ele>
      </trkpt>
      <trkpt lat="22.322263837332944" lon="103.84548901397326">
        <ele>1178.8053335639445</ele>
      </trkpt>
      <trkpt lat="22.323592062798223" lon="103.84393012355149">
        <ele>1185.2106163106982</ele>
      </trkpt>
      <trkpt lat="22.32511197138331" lon="103.84338876505926">
        <ele>1237.3100071612987</ele>
      </trkpt>
      <trkpt lat="22.326039776620142" lon="103.84474677766201">
        <ele>1314.7330372138117</ele>
      </trkpt>
      <trkpt lat="22.32595480791626" lon="103.84567545094716">
        <ele>1358.2539660027148</ele>
      </trkpt>
      <trkpt lat="22.32747716201752" lon="103.8449986201752">
        <ele>1390.6411744370018</ele>
      </trkpt>
      <trkpt lat="22.329109825174992" lon="103.84516873819922">
        <ele>1417.996300658692</ele>
      </trkpt>
      <trkpt lat="22.33107120498108" lon="103.84407909893262">
        <ele>1431.6910782111795</ele>
      </trkpt>
      <trkpt lat="22.332893809580916" lon="103.8427931737724">
        <ele>1472.5124930840313</ele>
      </trkpt>
      <trkpt lat="22.334594533671318" lon="103.84210581546841">
        <ele>1493.293618038135</ele>
      </trkpt>
      <trkpt lat="22.33499322520005" lon="103.8428164508695">
        <ele>1501.2427556713835</ele>
      </trkpt>
      <trkpt lat="22.33518406118791" lon="103.84473020410907">
        <ele>1548.805744729179</ele>
      </trkpt>
      <trkpt lat="22.33423" lon="103.84666104748977">
        <ele>1582.3663029703619</ele>
      </trkpt>
      <trkpt lat="22.33282148300941" lon="103.8484047682042">
        <ele>1619.1240859217653</ele>
      </trkpt>
      <trkpt lat="22.33368294188742" lon="103.84927743843514">
        <ele>1639.4898913355862</ele>
      </trkpt>
      <trkpt lat="22.33342296361113" lon="103.85145416351861">
        <ele>1649.6586785453121</ele>
      </trkpt>
      <trkpt lat="22.33384" lon="103.85373692522595">
        <ele>1705.5562750223014</ele>
      </trkpt>
      <trkpt lat="22.333896905927563" lon="103.8560490498607">
        <ele>1728.8978472131303</ele>
      </trkpt>
      <trkpt lat="22.334472800807397" lon="103.85814319650129">
        <ele>1772.2955726646187</ele>
      </trkpt>
      <trkpt lat="22.333353903005133" lon="103.85929016722955">
        <ele>1826.3978802271433</ele>
      </trkpt>
      <trkpt lat="22.332273656690703" lon="103.86125650528274">
        <ele>1859.3533471479104</ele>
      </trkpt>
      <trkpt lat="22.331325338826627" lon="103.86330263891284">
        <ele>1890.8967864404055</ele>
      </trkpt>
      <trkpt lat="22.329607552369115" lon="103.86441372381545">
        <ele>1874.3642720478072</ele>
      </trkpt>
      <trkpt lat="22.32853556618901" lon="103.86598015071648">
        <ele>1843.8301574285604</ele>
      </trkpt>
      <trkpt lat="22.328001601075105" lon="103.86825390776634">
        <ele>1805.4683424659343</ele>
      </trkpt>
      <trkpt lat="22.326931465955937" lon="103.87007673379804">
        <ele>1761.5779281932225</ele>
      </trkpt>
      <trkpt lat="22.326513660479307" lon="103.87215517440087">
        <ele>1720.1976467373445</ele>
      </trkpt>
      <trkpt lat="22.32679159534932" lon="103.87330966976799">
        <ele>1702.1630485520957</ele>
      </trkpt>
      <trkpt lat="22.327067204248515" lon="103.8753209706426">
        <ele>1673.2496699240999</ele>
      </trkpt>
      <trkpt lat="22.325361262514033" lon="103.87682397654788">
        <ele>1624.0090082975769</ele>
      </trkpt>
      <trkpt lat="22.324127446162013" lon="103.8765613445631">
        <ele>1590.697810030168</ele>
      </trkpt>
      <trkpt lat="22.322869827985027" lon="103.87756412601581">
        <ele>1540.7945053958983</ele>
      </trkpt>
      <trkpt lat="22.32280544662661" lon="103.87605110497536">
        <ele>1489.2935378666389</ele>
      </trkpt>
      <trkpt lat="22.32254117282592" lon="103.87398802956443">
        <ele>1469.4770479262743</ele>
      </trkpt>
      <trkpt lat="22.32167140556071" lon="103.87227777596543">
        <ele>1462.433495994507</ele>
      </trkpt>
      <trkpt lat="22.322185388464472" lon="103.87005584487734">
        <ele>1477.2396208893144</ele>
      </trkpt>
      <trkpt lat="22.321709658086988" lon="103.8678437723952">
        <ele>1486.9351747897522</ele>
      </trkpt>
      <trkpt lat="22.322887693215343" lon="103.86587420353966">
        <ele>1480.2101760292853</ele>
      </trkpt>
      <trkpt lat="22.32288223605841" lon="103.863564653781">
        <ele>1482.824534251365</ele>
      </trkpt>
      <trkpt lat="22.32405907074672" lon="103.8616965221786">
        <ele>1482.9394407137263</ele>
      </trkpt>
      <trkpt lat="22.323081979381588" lon="103.85991177319747">
        <ele>1454.4605258777324</ele>
      </trkpt>
      <trkpt lat="22.32298892168064" lon="103.8576510786764">
        <ele>1438.939325189044</ele>
      </trkpt>
      <trkpt lat="22.322391738619324" lon="103.85554751939513">
        <ele>1428.1219846963866</ele>
      </trkpt>
      <trkpt lat="22.323644349676705" lon="103.85515338254312">
        <ele>1402.3003160095009</ele>
      </trkpt>
      <trkpt lat="22.325552057532136" lon="103.85462247615425">
        <ele>1391.0696699783452</ele>
      </trkpt>
      <trkpt lat="22.323617759289416" lon="103.85408805781576">
        <ele>1379.4385434481787</ele>
      </trkpt>
      <trkpt lat="22.32175929193208" lon="103.85477636839835">
        <ele>1376.6288489601875</ele>
      </trkpt>
      <trkpt lat="22.32004022053934" lon="103.8536893984854">
        <ele>1317.0789977816812</ele>
      </trkpt>
      <trkpt lat="22.319710295123887" lon="103.85205387710275">
        <ele>1258.6709769887066</ele>
      </trkpt>
      <trkpt lat="22.31799048657193" lon="103.85084918483413">
        <ele>1215.426604748434</ele>
      </trkpt>
      <trkpt lat="22.31648830441491" lon="103.85163241285899">
        <ele>1164.92932757585</ele>
      </trkpt>
      <trkpt lat="22.31603467906386" lon="103.8500732327648">
        <ele>1127.3823093973074</ele>
      </trkpt>
      <trkpt lat="22.315525914215804" lon="103.84932452069707">
        <ele>1098.3939972628125</ele>
      </trkpt>
      <trkpt lat="22.316627670481562" lon="103.84729843172812">
        <ele>1106.041165332513</ele>
      </trkpt>
      <trkpt lat="22.31822385780136" lon="103.84619020279958">
        <ele>1147.2131701055027</ele>
      </trkpt>
      <trkpt lat="22.31966220173649" lon="103.8470014576948">
        <ele>1167.3093991561816</ele>
      </trkpt>
      <trkpt lat="22.321017222740792" lon="103.8458802718787">
        <ele>1154.578118495573</ele>
      </trkpt>
      <trkpt lat="22.322944570867485" lon="103.8453428628347">
        <ele>1182.9689431822908</ele>
      </trkpt>
      <trkpt lat="22.32382562686955" lon="103.84319873728705">
        <ele>1185.1903032420612</ele>
      </trkpt>
      <trkpt lat="22.325545598342128" lon="103.84361579871054">
        <ele>1264.054345528562</ele>
      </trkpt>
      <trkpt lat="22.32636027270302" lon="103.84483945486072">
        <ele>1329.6013126107255</ele>
      </trkpt>
      <trkpt lat="22.32658959828667" lon="103.84533020085667">
        <ele>1368.201944329058</ele>
      </trkpt>
      <trkpt lat="22.32776793687162" lon="103.8455623156419">
        <ele>1407.9188961595432</ele>
      </trkpt>
      <trkpt lat="22.329765383379563" lon="103.84484042471627">
        <ele>1412.9893837686402</ele>
      </trkpt>
      <trkpt lat="22.331650930999338" lon="103.84364803652977">
        <ele>1440.8524103189231</ele>
      </trkpt>
      <trkpt lat="22.333487091919963" lon="103.84235378852482">
        <ele>1480.3307408205633</ele>
      </trkpt>
      <trkpt lat="22.335242344451817" lon="103.8418881363353">
        <ele>1493.8979279491643</ele>
      </trkpt>
      <trkpt lat="22.335189189580607" lon="103.84340864330898">
        <ele>1514.7717226236043</ele>
      </trkpt>
      <trkpt lat="22.33495120447001" lon="103.84534889882224">
        <ele>1564.7613825484873</ele>
      </trkpt>
      <trkpt lat="22.333865994565446" lon="103.84724271035786">
        <ele>1598.0116794215423</ele>
      </trkpt>
      <trkpt lat="22.332561391730373" lon="103.84895133576889">
        <ele>1634.0255487583872</ele>
      </trkpt>
      <trkpt lat="22.333687879197168" lon="103.85000032883113">
        <ele>1634.6483081362016</ele>
      </trkpt>
      <trkpt lat="22.333694820515927" lon="103.85213186322716">
        <ele>1662.4797243798469</ele>
      </trkpt>
      <trkpt lat="22.333845578271088" lon="103.85451395487725">
        <ele>1714.9094187840963</ele>
      </trkpt>
      <trkpt lat="22.334157890864002" lon="103.85678350444401">
        <ele>1743.5843634568125</ele>
      </trkpt>
      <trkpt lat="22.334222040705885" lon="103.85880695929411">
        <ele>1793.1589643377176</ele>
      </trkpt>
      <trkpt lat="22.332826134502398" lon="103.8598278654976">
        <ele>1832.3829989258347</ele>
      </trkpt>
      <trkpt lat="22.33194298714011" lon="103.86192736119644">
        <ele>1871.6901513243345</ele>
      </trkpt>
      <trkpt lat="22.330625564085604" lon="103.86347414359143">
        <ele>1894.251054331185</ele>
      </trkpt>
      <trkpt lat="22.329092342462207" lon="103.86490420548341">
        <ele>1874.7058215312557</ele>
      </trkpt>
      <trkpt lat="22.32824477136485" lon="103.8666764572703">
        <ele>1821.6380610976</ele>
      </trkpt>
      <trkpt lat="22.32741841223554" lon="103.86866302913354">
        <ele>1795.363700234106</ele>
      </trkpt>
      <trkpt lat="22.326668763924957" lon="103.87080314475368">
        <ele>1751.5020055035395</ele>
      </trkpt>
      <trkpt lat="22.32608968426748" lon="103.87222083135683">
        <ele>1707.953348517708</ele>
      </trkpt>
      <trkpt lat="22.327237211324125" lon="103.8738878452965">
        <ele>1695.7740553306535</ele>
      </trkpt>
      <trkpt lat="22.326482947436137" lon="103.87578177096121">
        <ele>1656.4725570601597</ele>
      </trkpt>
      <trkpt lat="22.32486413252198" lon="103.8768795938375">
        <ele>1615.6000156515913</ele>
      </trkpt>
      <trkpt lat="22.32377290531627" lon="103.8765076590848">
        <ele>1575.6753933243506</ele>
      </trkpt>
      <trkpt lat="22.322428286152277" lon="103.87728289845975">
        <ele>1511.3606551158016</ele>
      </trkpt>
      <trkpt lat="22.322958965546135" lon="103.87535008622777">
        <ele>1480.9325756732746</ele>
      </trkpt>
      <trkpt lat="22.3222688315929" lon="103.87335360871528">
        <ele>1462.8431973941713</ele>
      </trkpt>
      <trkpt lat="22.32163469490073" lon="103.87149460172832">
        <ele>1463.4548584082088</ele>
      </trkpt>
      <trkpt lat="22.32199331276462" lon="103.86931492538811">
        <ele>1486.669424449265</ele>
      </trkpt>
      <trkpt lat="22.3221805712371" lon="103.86724224519884">
        <ele>1485.878429742039</ele>
      </trkpt>
      <trkpt lat="22.32266180179812" lon="103.86513336395586">
        <ele>1478.0119737252585</ele>
      </trkpt>
      <trkpt lat="22.323455260954418" lon="103.86311303947942">
        <ele>1491.2363054627965</ele>
      </trkpt>
      <trkpt lat="22.324094135204586" lon="103.86098808118322">
        <ele>1470.2075198753637</ele>
      </trkpt>
      <trkpt lat="22.32313908864435" lon="103.85913174403181">
        <ele>1449.7585565682698</ele>
      </trkpt>
      <trkpt lat="22.322807793624037" lon="103.85693041275192">
        <ele>1440.0806643836822</ele>
      </trkpt>
      <trkpt lat="22.322463971126044" lon="103.8550572019035">
        <ele>1415.3498217821918</ele>
      </trkpt>
      <trkpt lat="22.324239561284642" lon="103.85472589032116">
        <ele>1393.4987921152199</ele>
      </trkpt>
      <trkpt lat="22.3250088098541" lon="103.85463547492431">
        <ele>1386.5782935956208</ele>
      </trkpt>
      <trkpt lat="22.323037108685273" lon="103.85447454408587">
        <ele>1388.6323441032453</ele>
      </trkpt>
      <trkpt lat="22.32104716953304" lon="103.85464542751835">
        <ele>1351.273995726287</ele>
      </trkpt>
      <trkpt lat="22.320011767356288" lon="103.85317020194947">
        <ele>1294.531136255546</ele>
      </trkpt>
      <trkpt lat="22.319119026495347" lon="103.85185648593266">
        <ele>1243.8386650029418</ele>
      </trkpt>
      <trkpt lat="22.317383700629268" lon="103.8510300860055">
        <ele>1199.997204451196</ele>
      </trkpt>
      <trkpt lat="22.316313309999575" lon="103.85157445500829">
        <ele>1152.1422705113425</ele>
      </trkpt>
      <trkpt lat="22.315687740041422" lon="103.84945320492751">
        <ele>1106.1625137089777</ele>
      </trkpt>
      <trkpt lat="22.316044762513627" lon="103.84877423748637">
        <ele>1107.1788908865817</ele>
      </trkpt>
      <trkpt lat="22.316782542110086" lon="103.84652683155966">
        <ele>1105.97320606205</ele>
      </trkpt>
      <trkpt lat="22.31884319107484" lon="103.84641652752623">
        <ele>1163.8184195395122</ele>
      </trkpt>
      <trkpt lat="22.32006579652549" lon="103.84709499338405">
        <ele>1170.9096994661772</ele>
      </trkpt>
      <trkpt lat="22.321486029319146" lon="103.84538185945311">
        <ele>1169.6745902693535</ele>
      </trkpt>
      <trkpt lat="22.323312510373228" lon="103.84472069469349">
        <ele>1187.6705220734698</ele>
      </trkpt>
      <trkpt lat="22.324447377572106" lon="103.84305324485578">
        <ele>1204.054654344885</ele>
      </trkpt>
      <trkpt lat="22.325808141266087" lon="103.84415673234173">
        <ele>1286.9855959655622</ele>
      </trkpt>
      <trkpt lat="22.32637778357045" lon="103.8452089552394">
        <ele>1350.1895138332322</ele>
      </trkpt>
      <trkpt lat="22.327044264857026" lon="103.84472817173642">
        <ele>1370.4211547737239</ele>
      </trkpt>
      <trkpt lat="22.328394702595975" lon="103.84553166728976">
        <ele>1414.4335402591084</ele>
      </trkpt>
      <trkpt lat="22.330449636444502" lon="103.8445577146973">
        <ele>1421.279859657599</ele>
      </trkpt>
      <trkpt lat="22.33225151206748" lon="103.84319886034523">
        <ele>1453.547477282156</ele>
      </trkpt>
      <trkpt lat="22.334071587846783" lon="103.84223196162027">
        <ele>1486.6104186433656</ele>
      </trkpt>
      <trkpt lat="22.335527219512148" lon="103.84220874057655">
        <ele>1495.710401993439</ele>
      </trkpt>
      <trkpt lat="22.33559343480205" lon="103.8440425361217">
        <ele>1526.801653194248</ele>
      </trkpt>
      <trkpt lat="22.334649211287093" lon="103.84600575108927">
        <ele>1573.7662648728015</ele>
      </trkpt>
      <trkpt lat="22.333339302818583" lon="103.84778523767368">
        <ele>1608.1844682247563</ele>
      </trkpt>
      <trkpt lat="22.332957664652252" lon="103.84944408459234">
        <ele>1651.242648471978</ele>
      </trkpt>
      <trkpt lat="22.33332163739092" lon="103.850645100154">
        <ele>1634.835262310178</ele>
      </trkpt>
      <trkpt lat="22.333748165094807" lon="103.85292186226546">
        <ele>1681.589296111213</ele>
      </trkpt>
      <trkpt lat="22.333729824804422" lon="103.85527713485968">
        <ele>1723.0808955503226</ele>
      </trkpt>
      <trkpt lat="22.33451630691375" lon="103.85737945530998">
        <ele>1756.4178138185766</ele>
      </trkpt>
      <trkpt lat="22.33401094787349" lon="103.85939921563795">
        <ele>1812.1733773780743</ele>
      </trkpt>
      <trkpt lat="22.332457635097327" lon="103.86049768716543">
        <ele>1840.606452751368</ele>
      </trkpt>
      <trkpt lat="22.331671111021752" lon="103.86265211021754">
        <ele>1885.0022032185</ele>
      </trkpt>
      <trkpt lat="22.33010499485239" lon="103.86381801286902">
        <ele>1890.078409095402</ele>
      </trkpt>
      <trkpt lat="22.328556039095606" lon="103.8654237621964">
        <ele>1858.1013546221902</ele>
      </trkpt>
      <trkpt lat="22.328183057934442" lon="103.86745687657387">
        <ele>1810.9540349731797</ele>
      </trkpt>
      <trkpt lat="22.327174" lon="103.86935678043238">
        <ele>1770.7366315670117</ele>
      </trkpt>
      <trkpt lat="22.326834389960858" lon="103.87145115015223">
        <ele>1738.1356975571557</ele>
      </trkpt>
      <trkpt lat="22.32633909416337" lon="103.87279119044261">
        <ele>1698.9951370512792</ele>
      </trkpt>
      <trkpt lat="22.3273366897023" lon="103.87465402981248">
        <ele>1685.711979472474</ele>
      </trkpt>
      <trkpt lat="22.325868591061408" lon="103.87619699156937">
        <ele>1636.3960399565517</ele>
      </trkpt>
      <trkpt lat="22.324348313560343" lon="103.87683937889544">
        <ele>1604.397933746187</ele>
      </trkpt>
      <trkpt lat="22.323110088879403" lon="103.8768459111206">
        <ele>1548.9533624283767</ele>
      </trkpt>
      <trkpt lat="22.322210371396963" lon="103.87655895731669">
        <ele>1494.4618723891517</ele>
      </trkpt>
      <trkpt lat="22.32245694602255" lon="103.87480613636086">
        <ele>1470.8783280565983</ele>
      </trkpt>
      <trkpt lat="22.321593731199936" lon="103.87308088533322">
        <ele>1463.6887927225398</ele>
      </trkpt>
      <trkpt lat="22.321972198058518" lon="103.87078889914265">
        <ele>1471.6408329752621</ele>
      </trkpt>
      <trkpt lat="22.321713479935003" lon="103.86859050320875">
        <ele>1486.1019450042188</ele>
      </trkpt>
      <trkpt lat="22.32266942441466" lon="103.86664912996267">
        <ele>1485.3459639136563</ele>
      </trkpt>
      <trkpt lat="22.322677577779977" lon="103.86434681483316">
        <ele>1481.9527783170583</ele>
      </trkpt>
      <trkpt lat="22.323627968352174" lon="103.86236985513914">
        <ele>1488.3495421510509</ele>
      </trkpt>
      <trkpt lat="22.323458296421002" lon="103.86059238892629">
        <ele>1456.4208071352675</ele>
      </trkpt>
      <trkpt lat="22.32334547877654" lon="103.85839091510617">
        <ele>1445.9017078609315</ele>
      </trkpt>
      <trkpt lat="22.322834103940252" lon="103.85622494812986">
        <ele>1431.7170895296856</ele>
      </trkpt>
      <trkpt lat="22.323011867769793" lon="103.85558490082735">
        <ele>1415.3727581936619</ele>
      </trkpt>
      <trkpt lat="22.32492495811044" lon="103.85494778941377">
        <ele>1396.3000259622888</ele>
      </trkpt>
      <trkpt lat="22.324323621130006" lon="103.85438989021837">
        <ele>1382.3430868707721</ele>
      </trkpt>
      <trkpt lat="22.322371765432727" lon="103.85427694074036">
        <ele>1374.2480705717037</ele>
      </trkpt>
      <trkpt lat="22.32073513123442" lon="103.85398244282153">
        <ele>1331.8579786663392</ele>
      </trkpt>
      <trkpt lat="22.31997165135527" lon="103.85259886486843">
        <ele>1276.7783407404295</ele>
      </trkpt>
      <trkpt lat="22.318544526572932" lon="103.85141185071036">
        <ele>1228.9718763309686</ele>
      </trkpt>
      <trkpt lat="22.316809433773738" lon="103.85143547889142">
        <ele>1185.3428842545368</ele>
      </trkpt>
      <trkpt lat="22.316234804306372" lon="103.8508237143542">
        <ele>1134.8576569682095</ele>
      </trkpt>
      <trkpt lat="22.315182146433365" lon="103.84969732795285">
        <ele>1093.3620757601773</ele>
      </trkpt>
      <trkpt lat="22.31636034948322" lon="103.84807827366687">
        <ele>1109.8716317667242</ele>
      </trkpt>
      <trkpt lat="22.317468711391314" lon="103.84635016107609">
        <ele>1137.5852697337386</ele>
      </trkpt>
      <trkpt lat="22.3193932626075" lon="103.84651688310483">
        <ele>1164.377050153016</ele>
      </trkpt>
      <trkpt lat="22.320603966387964" lon="103.84656580351965">
        <ele>1158.6904787090148</ele>
      </trkpt>
      <trkpt lat="22.32221318512846" lon="103.84548104628212">
        <ele>1177.8391609022242</ele>
      </trkpt>
      <trkpt lat="22.323581054218263" lon="103.84398420179954">
        <ele>1185.3596246478926</ele>
      </trkpt>
      <trkpt lat="22.32507025937558" lon="103.84335725937558">
        <ele>1234.6651966668137</ele>
      </trkpt>
      <trkpt lat="22.32599172356422" lon="103.84473123413852">
        <ele>1313.0840399603944</ele>
      </trkpt>
      <trkpt lat="22.325907209039467" lon="103.84569523015166">
        <ele>1357.670704458236</ele>
      </trkpt>
      <trkpt lat="22.327471652717357" lon="103.84494356902148">
        <ele>1388.914341543973</ele>
      </trkpt>
      <trkpt lat="22.329062673044916" lon="103.8451903720102">
        <ele>1417.8812918001668</ele>
      </trkpt>
      <trkpt lat="22.331022868672353" lon="103.84409675292045">
        <ele>1429.8740381333835</ele>
      </trkpt>
      <trkpt lat="22.332850479214493" lon="103.84282268052367">
        <ele>1471.384597778946</ele>
      </trkpt>
      <trkpt lat="22.33456456582845" lon="103.84215007228433">
        <ele>1492.9506901933344</ele>
      </trkpt>
      <trkpt lat="22.3350167437013" lon="103.84279020277245">
        <ele>1500.947312691657</ele>
      </trkpt>
      <trkpt lat="22.335213978286173" lon="103.84471373516867">
        <ele>1547.5144233116348</ele>
      </trkpt>
      <trkpt lat="22.33423109792325" lon="103.84662456972912">
        <ele>1582.3222353254237</ele>
      </trkpt>
      <trkpt lat="22.332844269242795" lon="103.8483777980679">
        <ele>1618.3821470683458</ele>
      </trkpt>
      <trkpt lat="22.333654642336217" lon="103.84925745201437">
        <ele>1639.7678647387015</ele>
      </trkpt>
      <trkpt lat="22.333414217880833" lon="103.85141887152334">
        <ele>1648.8913946073951</ele>
      </trkpt>
      <trkpt lat="22.333842467427043" lon="103.85370049429719">
        <ele>1704.5313323668636</ele>
      </trkpt>
      <trkpt lat="22.333878110523237" lon="103.85601888815404">
        <ele>1728.9491024885083</ele>
      </trkpt>
      <trkpt lat="22.334487012051646" lon="103.85811112736216">
        <ele>1771.5230942021367</ele>
      </trkpt>
      <trkpt lat="22.333377237376272" lon="103.85926376262373">
        <ele>1826.120794064795</ele>
      </trkpt>
      <trkpt lat="22.332256099722997" lon="103.86122529956471">
        <ele>1857.9628779199443</ele>
      </trkpt>
      <trkpt lat="22.331354434855793" lon="103.86328410770274">
        <ele>1891.04833955488</ele>
      </trkpt>
      <trkpt lat="22.32963697955908" lon="103.86439601533068">
        <ele>1874.8431388516767</ele>
      </trkpt>
      <trkpt lat="22.328555274077356" lon="103.86595046560379">
        <ele>1844.855360431092</ele>
      </trkpt>
      <trkpt lat="22.32801315353761" lon="103.8682195700947">
        <ele>1805.775697411861</ele>
      </trkpt>
      <trkpt lat="22.32696028930049" lon="103.8700576458689">
        <ele>1762.3184937829599</ele>
      </trkpt>
      <trkpt lat="22.326535520576233" lon="103.87212730589836">
        <ele>1721.123152775709</ele>
      </trkpt>
      <trkpt lat="22.32677282500882" lon="103.87327965001764">
        <ele>1702.0541227972503</ele>
      </trkpt>
      <trkpt lat="22.327096371031974" lon="103.87530249834641">
        <ele>1673.737555662373</ele>
      </trkpt>
      <trkpt lat="22.325385588773425" lon="103.87679860301904">
        <ele>1624.5398045755685</ele>
      </trkpt>
      <trkpt lat="22.32411774748673" lon="103.87659612026225">
        <ele>1591.461805932738</ele>
      </trkpt>
      <trkpt lat="22.32289419611422" lon="103.87753880388577">
        <ele>1542.2487462635327</ele>
      </trkpt>
      <trkpt lat="22.32225642088024" lon="103.87749956230216">
        <ele>1501.35744225056</ele>
      </trkpt>
      <trkpt lat="22.321899164751198" lon="103.87958664270988">
        <ele>1522.6774917589291</ele>
      </trkpt>
      <trkpt lat="22.322714111886548" lon="103.880128279306">
        <ele>1535.5794904921554</ele>
      </trkpt>
      <trkpt lat="22.323076223610656" lon="103.88099790151261">
        <ele>1555.745589421869</ele>
      </trkpt>
      <trkpt lat="22.322973334293142" lon="103.88295750285177">
        <ele>1570.7695292242763</ele>
      </trkpt>
      <trkpt lat="22.32245451702171" lon="103.88515745289824">
        <ele>1578.4098493457536</ele>
      </trkpt>
      <trkpt lat="22.32113010579497" lon="103.88615447535562">
        <ele>1568.5660674541195</ele>
      </trkpt>
      <trkpt lat="22.32005531469262" lon="103.88816883947213">
        <ele>1546.7322563241237</ele>
      </trkpt>
      <trkpt lat="22.319393488159694" lon="103.88998579444957">
        <ele>1517.7392117965665</ele>
      </trkpt>
      <trkpt lat="22.31949450253306" lon="103.89211732703383">
        <ele>1532.179113358828</ele>
      </trkpt>
      <trkpt lat="22.319479547921407" lon="103.89415084083404">
        <ele>1546.3249689079107</ele>
      </trkpt>
      <trkpt lat="22.318232124516594" lon="103.89438033865035">
        <ele>1511.2438884550934</ele>
      </trkpt>
      <trkpt lat="22.31761081166941" lon="103.89233043500823">
        <ele>1472.416520928632</ele>
      </trkpt>
      <trkpt lat="22.316456542504522" lon="103.8911441323412">
        <ele>1425.163729884395</ele>
      </trkpt>
      <trkpt lat="22.314903975016897" lon="103.89273723585708">
        <ele>1383.3087600639167</ele>
      </trkpt>
      <trkpt lat="22.313391464551557" lon="103.89331459411565">
        <ele>1328.3052819071652</ele>
      </trkpt>
      <trkpt lat="22.312597887077384" lon="103.89269843058177">
        <ele>1276.0712715181446</ele>
      </trkpt>
      <trkpt lat="22.311867208271224" lon="103.89381929396467">
        <ele>1228.5144165581257</ele>
      </trkpt>
      <trkpt lat="22.311733450275735" lon="103.89512339543415">
        <ele>1198.3684511637778</ele>
      </trkpt>
      <trkpt lat="22.309844019936428" lon="103.89630195451784">
        <ele>1143.726489846591</ele>
      </trkpt>
      <trkpt lat="22.30797037739166" lon="103.89738769223362">
        <ele>1105.8198525200478</ele>
      </trkpt>
      <trkpt lat="22.306824120203714" lon="103.89911186777591">
        <ele>1082.2385883053746</ele>
      </trkpt>
      <trkpt lat="22.30669832473266" lon="103.90121947954479">
        <ele>1099.909727882825</ele>
      </trkpt>
      <trkpt lat="22.3069316705048" lon="103.90326780336534">
        <ele>1138.6630262700467</ele>
      </trkpt>
      <trkpt lat="22.306679712587687" lon="103.90559212587686">
        <ele>1151.9796851482593</ele>
      </trkpt>
      <trkpt lat="22.306461851554545" lon="103.9074705322811">
        <ele>1148.7161610768567</ele>
      </trkpt>
      <trkpt lat="22.30452374069596" lon="103.90831851860808">
        <ele>1121.6080421782985</ele>
      </trkpt>
      <trkpt lat="22.303397139304195" lon="103.90992607960119">
        <ele>1119.7171163846826</ele>
      </trkpt>
      <trkpt lat="22.301505366848538" lon="103.91094109171213">
        <ele>1099.0311306618053</ele>
      </trkpt>
      <trkpt lat="22.300290216009387" lon="103.91270135635936">
        <ele>1092.3076225543202</ele>
      </trkpt>
      <trkpt lat="22.29959438280293" lon="103.91418169532844">
        <ele>1076.899791771989</ele>
      </trkpt>
      <trkpt lat="22.29986279597373" lon="103.91656251006567">
        <ele>1090.9890938367537</ele>
      </trkpt>
      <trkpt lat="22.298559453027316" lon="103.91831423423825">
        <ele>1092.9376212719</ele>
      </trkpt>
      <trkpt lat="22.299340122923695" lon="103.91996007122088">
        <ele>1137.4805507411243</ele>
      </trkpt>
      <trkpt lat="22.297523212544306" lon="103.92112620756555">
        <ele>1114.216468548819</ele>
      </trkpt>
      <trkpt lat="22.296289118354863" lon="103.9227383019035">
        <ele>1124.527115121548</ele>
      </trkpt>
      <trkpt lat="22.295955262978655" lon="103.92481962363344">
        <ele>1129.9838463127323</ele>
      </trkpt>
      <trkpt lat="22.295797586325673" lon="103.92691824669268">
        <ele>1149.9357937956806</ele>
      </trkpt>
      <trkpt lat="22.29375569321157" lon="103.92753125897514">
        <ele>1121.0009636263646</ele>
      </trkpt>
      <trkpt lat="22.293039000590266" lon="103.92944196549688">
        <ele>1134.2499142717895</ele>
      </trkpt>
      <trkpt lat="22.291894203925512" lon="103.93071221193847">
        <ele>1136.0019499732364</ele>
      </trkpt>
      <trkpt lat="22.29095608274849" lon="103.93244948245469">
        <ele>1139.08088073449</ele>
      </trkpt>
      <trkpt lat="22.289525773014212" lon="103.93404605674645">
        <ele>1120.5241744406555</ele>
      </trkpt>
      <trkpt lat="22.28877216978709" lon="103.93606078308551">
        <ele>1127.0576379151962</ele>
      </trkpt>
      <trkpt lat="22.28771527452608" lon="103.9378150407127">
        <ele>1125.8573539560412</ele>
      </trkpt>
      <trkpt lat="22.28686629711264" lon="103.93960338136435">
        <ele>1126.1759956290666</ele>
      </trkpt>
      <trkpt lat="22.286892" lon="103.94155848379964">
        <ele>1181.0116805836658</ele>
      </trkpt>
      <trkpt lat="22.286213329822065" lon="103.94338825263345">
        <ele>1220.3282695628359</ele>
      </trkpt>
      <trkpt lat="22.285266448746427" lon="103.94515555125358">
        <ele>1272.4915874237433</ele>
      </trkpt>
      <trkpt lat="22.286122190153993" lon="103.94521146066651">
        <ele>1307.5291515523406</ele>
      </trkpt>
      <trkpt lat="22.287861330560276" lon="103.943953337691">
        <ele>1342.0715456526827</ele>
      </trkpt>
      <trkpt lat="22.288978176309662" lon="103.94316238291619">
        <ele>1364.6234955418518</ele>
      </trkpt>
      <trkpt lat="22.289289226596626" lon="103.94493884893558">
        <ele>1400.2948293486156</ele>
      </trkpt>
      <trkpt lat="22.291008364875164" lon="103.94564185137538">
        <ele>1416.3235737098598</ele>
      </trkpt>
      <trkpt lat="22.292443160533708" lon="103.94720029195308">
        <ele>1403.5381152716307</ele>
      </trkpt>
      <trkpt lat="22.29394408908936" lon="103.94828077950639">
        <ele>1350.4306491882232</ele>
      </trkpt>
      <trkpt lat="22.294511818001208" lon="103.94709250896088">
        <ele>1320.7880825487644</ele>
      </trkpt>
      <trkpt lat="22.29488891447355" lon="103.94908783612458">
        <ele>1257.047721874953</ele>
      </trkpt>
      <trkpt lat="22.295992225323843" lon="103.94923144081788">
        <ele>1215.8933393747984</ele>
      </trkpt>
      <trkpt lat="22.297123756533534" lon="103.94775051471892">
        <ele>1243.8355443534426</ele>
      </trkpt>
      <trkpt lat="22.298257944673328" lon="103.94632709221112">
        <ele>1243.7090424107341</ele>
      </trkpt>
      <trkpt lat="22.299670457261048" lon="103.94514443224783">
        <ele>1242.8609417857715</ele>
      </trkpt>
      <trkpt lat="22.30120503158684" lon="103.94521393682632">
        <ele>1252.010143945197</ele>
      </trkpt>
      <trkpt lat="22.303225007592083" lon="103.9455731335864">
        <ele>1224.39588602902</ele>
      </trkpt>
      <trkpt lat="22.302692562729558" lon="103.94761496010535">
        <ele>1213.2918213902362</ele>
      </trkpt>
      <trkpt lat="22.30174839415871" lon="103.94967747746034">
        <ele>1212.6679602323786</ele>
      </trkpt>
      <trkpt lat="22.30157711941485" lon="103.95187534556062">
        <ele>1210.6653230152133</ele>
      </trkpt>
      <trkpt lat="22.30111213009174" lon="103.9540834498471">
        <ele>1228.7950397464026</ele>
      </trkpt>
      <trkpt lat="22.30069412396317" lon="103.95630732507672">
        <ele>1229.792653910771</ele>
      </trkpt>
      <trkpt lat="22.299626223490556" lon="103.95804298973664">
        <ele>1223.06062215413</ele>
      </trkpt>
      <trkpt lat="22.298062311473767" lon="103.95925026670851">
        <ele>1225.3677403743704</ele>
      </trkpt>
      <trkpt lat="22.296264794703756" lon="103.96007861588873">
        <ele>1215.0461663755589</ele>
      </trkpt>
      <trkpt lat="22.294967667972085" lon="103.96164684066243">
        <ele>1191.8481619498027</ele>
      </trkpt>
      <trkpt lat="22.294138656257065" lon="103.96380924372033">
        <ele>1142.437109241383</ele>
      </trkpt>
      <trkpt lat="22.292518184620562" lon="103.96435828670859">
        <ele>1083.5647931075803</ele>
      </trkpt>
      <trkpt lat="22.290881652899174" lon="103.965902">
        <ele>1061.3599691996476</ele>
      </trkpt>
      <trkpt lat="22.289276288619508" lon="103.96678485569025">
        <ele>1013.4706568358142</ele>
      </trkpt>
      <trkpt lat="22.288235854192642" lon="103.96858915938415">
        <ele>987.4533336649598</ele>
      </trkpt>
      <trkpt lat="22.28719039378377" lon="103.97053150048941">
        <ele>963.7437138424714</ele>
      </trkpt>
      <trkpt lat="22.285541457878615" lon="103.96952803404625">
        <ele>920.3040619539986</ele>
      </trkpt>
      <trkpt lat="22.28461197407573" lon="103.96794093202672">
        <ele>838.1005535066658</ele>
      </trkpt>
      <trkpt lat="22.28340466613131" lon="103.966672">
        <ele>837.7768172110696</ele>
      </trkpt>
      <trkpt lat="22.282188655172497" lon="103.96583755394887">
        <ele>842.6427775158621</ele>
      </trkpt>
      <trkpt lat="22.28056082321638" lon="103.96613582853789">
        <ele>876.5965123891016</ele>
      </trkpt>
      <trkpt lat="22.28077233514568" lon="103.96404826127298">
        <ele>933.9506030843954</ele>
      </trkpt>
      <trkpt lat="22.2803574273593" lon="103.96339754397431">
        <ele>961.339537326299</ele>
      </trkpt>
      <trkpt lat="22.279124469115576" lon="103.96444476544221">
        <ele>960.1747760670784</ele>
      </trkpt>
      <trkpt lat="22.277531" lon="103.96401709175728">
        <ele>971.0009249284361</ele>
      </trkpt>
      <trkpt lat="22.27759453583327" lon="103.9622487508329">
        <ele>962.3682004115267</ele>
      </trkpt>
      <trkpt lat="22.277880789380497" lon="103.95989624283212">
        <ele>953.9879046785204</ele>
      </trkpt>
      <trkpt lat="22.277886" lon="103.95751445019997">
        <ele>944.5014474890904</ele>
      </trkpt>
      <trkpt lat="22.278460180543238" lon="103.95526003461752">
        <ele>946.2505337691509</ele>
      </trkpt>
      <trkpt lat="22.27824949293121" lon="103.95289197172484">
        <ele>951.2293679458963</ele>
      </trkpt>
      <trkpt lat="22.277656745918172" lon="103.95077980217974">
        <ele>959.9933514314517</ele>
      </trkpt>
      <trkpt lat="22.277333140023813" lon="103.94865247996826">
        <ele>960.6273941222049</ele>
      </trkpt>
      <trkpt lat="22.27814797811378" lon="103.94662554264474">
        <ele>948.7273870159684</ele>
      </trkpt>
      <trkpt lat="22.277192152793564" lon="103.9445510372475">
        <ele>939.0295700452305</ele>
      </trkpt>
      <trkpt lat="22.278452683124506" lon="103.94258638104209">
        <ele>935.1426895248768</ele>
      </trkpt>
      <trkpt lat="22.280579518110635" lon="103.94186511917871">
        <ele>936.6260372052233</ele>
      </trkpt>
      <trkpt lat="22.28233521493242" lon="103.94047670745596">
        <ele>943.9938841469763</ele>
      </trkpt>
      <trkpt lat="22.282679072230334" lon="103.93874869281765">
        <ele>942.213588780121</ele>
      </trkpt>
      <trkpt lat="22.280741001836805" lon="103.93814601377603">
        <ele>897.91473301282</ele>
      </trkpt>
      <trkpt lat="22.279512862515325" lon="103.936865">
        <ele>905.9101077296888</ele>
      </trkpt>
      <trkpt lat="22.277321625729655" lon="103.93682757344357">
        <ele>853.1548476838993</ele>
      </trkpt>
      <trkpt lat="22.277615482664856" lon="103.93562264666893">
        <ele>819.7092012468107</ele>
      </trkpt>
      <trkpt lat="22.27827884921964" lon="103.93376313470054">
        <ele>771.8960566191064</ele>
      </trkpt>
      <trkpt lat="22.27980087225292" lon="103.93234116567112">
        <ele>751.6766061042656</ele>
      </trkpt>
      <trkpt lat="22.28102948342224" lon="103.93066340285186">
        <ele>747.0648104024294</ele>
      </trkpt>
      <trkpt lat="22.2811719145164" lon="103.9286779443566">
        <ele>795.389409562376</ele>
      </trkpt>
      <trkpt lat="22.280805061556052" lon="103.92783694870329">
        <ele>831.5520132018135</ele>
      </trkpt>
      <trkpt lat="22.28033569747606" lon="103.92558909242817">
        <ele>904.4205910578592</ele>
      </trkpt>
      <trkpt lat="22.280705117063903" lon="103.92434418055267">
        <ele>966.4508139507969</ele>
      </trkpt>
      <trkpt lat="22.281892289918588" lon="103.922447436249">
        <ele>954.9132487861546</ele>
      </trkpt>
      <trkpt lat="22.282629303251174" lon="103.92069250298906">
        <ele>952.1876602298782</ele>
      </trkpt>
      <trkpt lat="22.283702129201465" lon="103.91874072421712">
        <ele>961.9753383015611</ele>
      </trkpt>
      <trkpt lat="22.28496440766501" lon="103.91732125883605">
        <ele>967.503320821805</ele>
      </trkpt>
      <trkpt lat="22.28623083984989" lon="103.91575172594112">
        <ele>965.2094053535703</ele>
      </trkpt>
      <trkpt lat="22.286787411425955" lon="103.91401029486289">
        <ele>1004.8949189112087</ele>
      </trkpt>
      <trkpt lat="22.287598550238776" lon="103.91193446759573">
        <ele>1041.509052975249</ele>
      </trkpt>
      <trkpt lat="22.28908386721124" lon="103.91027681082831">
        <ele>1031.982191411367</ele>
      </trkpt>
      <trkpt lat="22.2904163842759" lon="103.90917709885883">
        <ele>1033.1111043763622</ele>
      </trkpt>
      <trkpt lat="22.2903706308163" lon="103.90731288394039">
        <ele>1048.5521728901035</ele>
      </trkpt>
      <trkpt lat="22.29207958216905" lon="103.90649812078874">
        <ele>1063.0797734227249</ele>
      </trkpt>
      <trkpt lat="22.29070930234315" lon="103.90506354648527">
        <ele>1061.8162792476644</ele>
      </trkpt>
      <trkpt lat="22.29265703516674" lon="103.90506701172224">
        <ele>1007.5598441113515</ele>
      </trkpt>
      <trkpt lat="22.29356648515326" lon="103.90365574822113">
        <ele>1008.3309921263174</ele>
      </trkpt>
      <trkpt lat="22.294276948294613" lon="103.90173174147306">
        <ele>1013.1647055527624</ele>
      </trkpt>
      <trkpt lat="22.294598613974305" lon="103.89996696824021">
        <ele>1039.6545049270896</ele>
      </trkpt>
      <trkpt lat="22.295762561949232" lon="103.89843917578588">
        <ele>1012.5763166487901</ele>
      </trkpt>
      <trkpt lat="22.296945" lon="103.89763223857952">
        <ele>1000.0288292483596</ele>
      </trkpt>
      <trkpt lat="22.29808123325222" lon="103.89600434126235">
        <ele>1032.972217378131</ele>
      </trkpt>
      <trkpt lat="22.298963630017575" lon="103.89437435639468">
        <ele>1038.0236828761563</ele>
      </trkpt>
      <trkpt lat="22.300212955623454" lon="103.89378917337407">
        <ele>1016.7247647888616</ele>
      </trkpt>
      <trkpt lat="22.301768079655837" lon="103.89421178531265">
        <ele>991.0073913553884</ele>
      </trkpt>
      <trkpt lat="22.302639920296624" lon="103.89258400380463">
        <ele>971.8726445880261</ele>
      </trkpt>
      <trkpt lat="22.304025065702607" lon="103.89068282917322">
        <ele>974.368011727459</ele>
      </trkpt>
      <trkpt lat="22.305119328429424" lon="103.8888381387674">
        <ele>973.3851433892164</ele>
      </trkpt>
      <trkpt lat="22.30456994147424" lon="103.88673177799735">
        <ele>982.1738886631787</ele>
      </trkpt>
      <trkpt lat="22.305691123125218" lon="103.88510497897707">
        <ele>981.5762090666545</ele>
      </trkpt>
      <trkpt lat="22.307579465263796" lon="103.88393860603436">
        <ele>982.5610437021357</ele>
      </trkpt>
      <trkpt lat="22.30741185934194" lon="103.88203390220323">
        <ele>991.6916813192823</ele>
      </trkpt>
      <trkpt lat="22.3066795669539" lon="103.88003725919859">
        <ele>1007.5913219573224</ele>
      </trkpt>
      <trkpt lat="22.307817146483128" lon="103.87836057650382">
        <ele>1011.6643264259083</ele>
      </trkpt>
      <trkpt lat="22.30873171687636" lon="103.87680845281272">
        <ele>1008.6853586401771</ele>
      </trkpt>
      <trkpt lat="22.309865" lon="103.87524370078775">
        <ele>1005.2935417349316</ele>
      </trkpt>
      <trkpt lat="22.309367900216046" lon="103.87330013448558">
        <ele>1012.2802893791696</ele>
      </trkpt>
      <trkpt lat="22.308207406932333" lon="103.87234688318797">
        <ele>1027.4645774954793</ele>
      </trkpt>
      <trkpt lat="22.3068193292193" lon="103.87224436322438">
        <ele>1046.3005422954145</ele>
      </trkpt>
      <trkpt lat="22.307978850010414" lon="103.87111941499896">
        <ele>1043.6341762936545</ele>
      </trkpt>
      <trkpt lat="22.307039275473425" lon="103.8696213339722">
        <ele>1082.9347498695247</ele>
      </trkpt>
      <trkpt lat="22.306069820206453" lon="103.86779305380374">
        <ele>1142.0823792496603</ele>
      </trkpt>
      <trkpt lat="22.30452407860415" lon="103.86623307860414">
        <ele>1180.303176871123</ele>
      </trkpt>
      <trkpt lat="22.303188007665412" lon="103.86510400766541">
        <ele>1219.3166313444249</ele>
      </trkpt>
      <trkpt lat="22.302694535799585" lon="103.86387503752985">
        <ele>1250.0041469113203</ele>
      </trkpt>
      <trkpt lat="22.300921359587367" lon="103.86322102148057">
        <ele>1286.562818471152</ele>
      </trkpt>
      <trkpt lat="22.300191527450536" lon="103.86115742483513">
        <ele>1326.4376483875599</ele>
      </trkpt>
      <trkpt lat="22.298619263905696" lon="103.86039100618031">
        <ele>1342.4541879425715</ele>
      </trkpt>
      <trkpt lat="22.2976722732288" lon="103.8588973836237">
        <ele>1376.3551183777097</ele>
      </trkpt>
      <trkpt lat="22.29693619458359" lon="103.8569905972918">
        <ele>1389.2416330041867</ele>
      </trkpt>
      <trkpt lat="22.29719099533097" lon="103.8551720133401">
        <ele>1393.5292315822594</ele>
      </trkpt>
      <trkpt lat="22.298236640890384" lon="103.85400293371814">
        <ele>1349.8654736368524</ele>
      </trkpt>
      <trkpt lat="22.297963869547594" lon="103.85209626049947">
        <ele>1360.6953047773177</ele>
      </trkpt>
      <trkpt lat="22.299427121811952" lon="103.85159986078635">
        <ele>1340.4826073751979</ele>
      </trkpt>
      <trkpt lat="22.300185451745662" lon="103.85075222603112">
        <ele>1316.9463041142317</ele>
      </trkpt>
      <trkpt lat="22.299619588964624" lon="103.8488408496592">
        <ele>1326.0473229190188</ele>
      </trkpt>
      <trkpt lat="22.299679035668447" lon="103.84677436195365">
        <ele>1344.9692271682509</ele>
      </trkpt>
      <trkpt lat="22.29963992251824" lon="103.84534218009908">
        <ele>1330.557754677575</ele>
      </trkpt>
      <trkpt lat="22.298853165419185" lon="103.84431252095814">
        <ele>1319.6760919969756</ele>
      </trkpt>
      <trkpt lat="22.300473058531118" lon="103.84369345902822">
        <ele>1292.0305568269257</ele>
      </trkpt>
      <trkpt lat="22.30216279585379" lon="103.84260929824333">
        <ele>1287.7958124808574</ele>
      </trkpt>
      <trkpt lat="22.303032894234725" lon="103.84095809796241">
        <ele>1289.6622257819536</ele>
      </trkpt>
      <trkpt lat="22.30305955380298" lon="103.8391747784788">
        <ele>1268.3469612536644</ele>
      </trkpt>
      <trkpt lat="22.304406290197313" lon="103.83811593529597">
        <ele>1223.762069116567</ele>
      </trkpt>
      <trkpt lat="22.305802073832" lon="103.83969819225213">
        <ele>1209.4021916489328</ele>
      </trkpt>
      <trkpt lat="22.306993931509183" lon="103.84095751138672">
        <ele>1193.351668870659</ele>
      </trkpt>
      <trkpt lat="22.30837655372175" lon="103.84277015774595">
        <ele>1157.3110922726287</ele>
      </trkpt>
      <trkpt lat="22.31023732765961" lon="103.84348353228495">
        <ele>1140.834719548581</ele>
      </trkpt>
      <trkpt lat="22.312025" lon="103.8438218721459">
        <ele>1133.7265120196478</ele>
      </trkpt>
      <trkpt lat="22.313147457546076" lon="103.84575011131334">
        <ele>1127.131191227888</ele>
      </trkpt>
      <trkpt lat="22.313745018894675" lon="103.84788987314815">
        <ele>1105.8965362033566</ele>
      </trkpt>
      <trkpt lat="22.314627005446372" lon="103.84982658697359">
        <ele>1082.2563472599832</ele>
      </trkpt>
      <trkpt lat="22.3161711341276" lon="103.84853945157559">
        <ele>1108.1576423711003</ele>
      </trkpt>
      <trkpt lat="22.31701365788132" lon="103.84647193734465">
        <ele>1117.5288669790739</ele>
      </trkpt>
      <trkpt lat="22.31901904427918" lon="103.84659504427918">
        <ele>1176.1909295132832</ele>
      </trkpt>
      <trkpt lat="22.320301879722628" lon="103.84685112027738">
        <ele>1168.0256606297405</ele>
      </trkpt>
      <trkpt lat="22.321842336848793" lon="103.8454060421061">
        <ele>1172.4653422823662</ele>
      </trkpt>
      <trkpt lat="22.323502343412336" lon="103.84442885313224">
        <ele>1188.633988035034</ele>
      </trkpt>
      <trkpt lat="22.323971975510954" lon="103.84220459092863">
        <ele>1183.8972005693845</ele>
      </trkpt>
      <trkpt lat="22.325039840080684" lon="103.8402870298588">
        <ele>1194.5362717593964</ele>
      </trkpt>
      <trkpt lat="22.326177335560466" lon="103.83833299164824">
        <ele>1219.0079524691619</ele>
      </trkpt>
      <trkpt lat="22.327045396857464" lon="103.8362032966589">
        <ele>1225.5589940524026</ele>
      </trkpt>
      <trkpt lat="22.328302869830512" lon="103.83522834216654">
        <ele>1248.4993833509477</ele>
      </trkpt>
      <trkpt lat="22.32887720274322" lon="103.83604721369291">
        <ele>1271.7943139987885</ele>
      </trkpt>
      <trkpt lat="22.32936772967578" lon="103.83385627481299">
        <ele>1274.8701690985015</ele>
      </trkpt>
      <trkpt lat="22.330168332598856" lon="103.8322017792957">
        <ele>1295.789829211222</ele>
      </trkpt>
      <trkpt lat="22.331190075513245" lon="103.83012455302979">
        <ele>1270.151063089167</ele>
      </trkpt>
      <trkpt lat="22.33145857676335" lon="103.82795851689424">
        <ele>1288.3135851231145</ele>
      </trkpt>
      <trkpt lat="22.33175168967576" lon="103.825845252901">
        <ele>1301.350767819041</ele>
      </trkpt>
      <trkpt lat="22.33230948599293" lon="103.82359719934982">
        <ele>1319.4177168879758</ele>
      </trkpt>
      <trkpt lat="22.334241325103587" lon="103.8225200837565">
        <ele>1337.4810068858026</ele>
      </trkpt>
      <trkpt lat="22.335654529085225" lon="103.82112045650977">
        <ele>1356.4407949267259</ele>
      </trkpt>
      <trkpt lat="22.336706773839335" lon="103.81927596867173">
        <ele>1371.1619303199604</ele>
      </trkpt>
      <trkpt lat="22.338218304525494" lon="103.81754507870441">
        <ele>1383.1232352546408</ele>
      </trkpt>
      <trkpt lat="22.339584212279604" lon="103.81574331711266">
        <ele>1380.760831607302</ele>
      </trkpt>
      <trkpt lat="22.340777778231153" lon="103.81393206277961">
        <ele>1400.9493041373992</ele>
      </trkpt>
      <trkpt lat="22.342320939887998" lon="103.812499409832">
        <ele>1389.466550057112</ele>
      </trkpt>
      <trkpt lat="22.34171828877107" lon="103.81051425534936">
        <ele>1358.9268971600777</ele>
      </trkpt>
      <trkpt lat="22.340356980376427" lon="103.80903656467757">
        <ele>1359.9199102467583</ele>
      </trkpt>
      <trkpt lat="22.341251434659817" lon="103.80769769602054">
        <ele>1431.5021701439773</ele>
      </trkpt>
      <trkpt lat="22.342760779705806" lon="103.80614428404388">
        <ele>1487.0429943801694</ele>
      </trkpt>
      <trkpt lat="22.343597110899264" lon="103.80588854851842">
        <ele>1484.5439917578365</ele>
      </trkpt>
      <trkpt lat="22.345653892057893" lon="103.80521570864416">
        <ele>1479.5699180101</ele>
      </trkpt>
      <trkpt lat="22.347706720213427" lon="103.80445951191463">
        <ele>1459.6020253625816</ele>
      </trkpt>
      <trkpt lat="22.349297139815498" lon="103.80324945006589">
        <ele>1477.9950518386647</ele>
      </trkpt>
      <trkpt lat="22.350656148625376" lon="103.80237244511818">
        <ele>1469.5598063647278</ele>
      </trkpt>
      <trkpt lat="22.352192749810577" lon="103.80273008336842">
        <ele>1430.7686641524253</ele>
      </trkpt>
      <trkpt lat="22.353284342411687" lon="103.80341351084044">
        <ele>1451.8317904785936</ele>
      </trkpt>
      <trkpt lat="22.355064135384318" lon="103.80257714119651">
        <ele>1496.0884955902934</ele>
      </trkpt>
      <trkpt lat="22.357116086513102" lon="103.80192201441885">
        <ele>1551.2847595936396</ele>
      </trkpt>
      <trkpt lat="22.358179115686795" lon="103.80054855900103">
        <ele>1558.4515903024744</ele>
      </trkpt>
      <trkpt lat="22.358881181435045" lon="103.7984562419134">
        <ele>1573.2222599495353</ele>
      </trkpt>
      <trkpt lat="22.360129763846498" lon="103.79668429519188">
        <ele>1626.205477557087</ele>
      </trkpt>
      <trkpt lat="22.36199505275347" lon="103.79657410550695">
        <ele>1656.3876155087385</ele>
      </trkpt>
      <trkpt lat="22.363018189426366" lon="103.79844255154109">
        <ele>1692.2434492570017</ele>
      </trkpt>
      <trkpt lat="22.36473462552978" lon="103.79999059187233">
        <ele>1699.3135349364447</ele>
      </trkpt>
      <trkpt lat="22.36615590666297" lon="103.80154980289936">
        <ele>1723.6816720533493</ele>
      </trkpt>
      <trkpt lat="22.36813888072954" lon="103.80225827522369">
        <ele>1739.8447890209916</ele>
      </trkpt>
      <trkpt lat="22.369978636139397" lon="103.80256378510359">
        <ele>1764.484601702143</ele>
      </trkpt>
      <trkpt lat="22.37199254505125" lon="103.80310689230534">
        <ele>1820.246386563709</ele>
      </trkpt>
      <trkpt lat="22.372765858153933" lon="103.80477702364101">
        <ele>1838.2981107255262</ele>
      </trkpt>
      <trkpt lat="22.371986296761776" lon="103.80547896702647">
        <ele>1878.2221254463082</ele>
      </trkpt>
      <trkpt lat="22.370280995193642" lon="103.806778">
        <ele>1922.3484978069612</ele>
      </trkpt>
      <trkpt lat="22.369122718112134" lon="103.8080471543364">
        <ele>1964.316248831533</ele>
      </trkpt>
      <trkpt lat="22.370140129269494" lon="103.80984842196446">
        <ele>2011.7813422798909</ele>
      </trkpt>
      <trkpt lat="22.37024385284077" lon="103.81167825752865">
        <ele>2078.0143398833366</ele>
      </trkpt>
      <trkpt lat="22.370059" lon="103.81361570987772">
        <ele>2137.5413910346874</ele>
      </trkpt>
      <trkpt lat="22.37159655732499" lon="103.81506092887498">
        <ele>2199.759647015279</ele>
      </trkpt>
      <trkpt lat="22.37357315104131" lon="103.81473031666782">
        <ele>2198.9991603789363</ele>
      </trkpt>
      <trkpt lat="22.374755670342335" lon="103.8128384944865">
        <ele>2199.556710420179</ele>
      </trkpt>
      <trkpt lat="22.376080864651104" lon="103.8109467772675">
        <ele>2248.850212124074</ele>
      </trkpt>
      <trkpt lat="22.37800284902982" lon="103.80986343871272">
        <ele>2262.3502271800257</ele>
      </trkpt>
      <trkpt lat="22.379785889808264" lon="103.80849852754794">
        <ele>2308.7702148716826</ele>
      </trkpt>
      <trkpt lat="22.381668427735505" lon="103.80922122316635">
        <ele>2251.1619452434547</ele>
      </trkpt>
      <trkpt lat="22.383796655651008" lon="103.80971384948627">
        <ele>2224.5348394505754</ele>
      </trkpt>
      <trkpt lat="22.38545350084531" lon="103.81089241934347">
        <ele>2186.43319251948</ele>
      </trkpt>
      <trkpt lat="22.387074617591423" lon="103.81056446319357">
        <ele>2130.532947729109</ele>
      </trkpt>
      <trkpt lat="22.389140402807474" lon="103.81127172037434">
        <ele>2114.323480762298</ele>
      </trkpt>
      <trkpt lat="22.390857307650734" lon="103.811113">
        <ele>2014.1650679258712</ele>
      </trkpt>
      <trkpt lat="22.39234743096631" lon="103.81256391222519">
        <ele>2034.393058384254</ele>
      </trkpt>
      <trkpt lat="22.392731623585536" lon="103.81456262358554">
        <ele>1962.771979125012</ele>
      </trkpt>
      <trkpt lat="22.393012146352874" lon="103.81684643905862">
        <ele>1881.6058449047202</ele>
      </trkpt>
      <trkpt lat="22.393120306766413" lon="103.81886377293435">
        <ele>1806.3639940672954</ele>
      </trkpt>
      <trkpt lat="22.393050066598637" lon="103.82114085460111">
        <ele>1747.4278070132993</ele>
      </trkpt>
      <trkpt lat="22.393790224298208" lon="103.8228170841233">
        <ele>1661.3020908355932</ele>
      </trkpt>
      <trkpt lat="22.393845099698527" lon="103.82476060917314">
        <ele>1563.2783090920693</ele>
      </trkpt>
      <trkpt lat="22.39336640081661" lon="103.82592740081661">
        <ele>1497.3880522767556</ele>
      </trkpt>
      <trkpt lat="22.39362712687849" lon="103.82807719282238">
        <ele>1437.8446874256558</ele>
      </trkpt>
      <trkpt lat="22.39418396131495" lon="103.8299126977064">
        <ele>1395.3493091511373</ele>
      </trkpt>
      <trkpt lat="22.395622580112203" lon="103.82895533765347">
        <ele>1387.0093072058157</ele>
      </trkpt>
      <trkpt lat="22.39706560736919" lon="103.82920941042005">
        <ele>1356.5676101550152</ele>
      </trkpt>
      <trkpt lat="22.397094099468905" lon="103.83135361805714">
        <ele>1336.1524124009711</ele>
      </trkpt>
      <trkpt lat="22.39734851716053" lon="103.83368986193422">
        <ele>1314.0355084971238</ele>
      </trkpt>
      <trkpt lat="22.397057082925375" lon="103.83580352143598">
        <ele>1302.4041265390897</ele>
      </trkpt>
      <trkpt lat="22.398788471469906" lon="103.83659366966869">
        <ele>1308.3815578046676</ele>
      </trkpt>
      <trkpt lat="22.4002765512018" lon="103.83784375657805">
        <ele>1302.044416707035</ele>
      </trkpt>
      <trkpt lat="22.39923254725453" lon="103.83987597899798">
        <ele>1279.93945957282</ele>
      </trkpt>
      <trkpt lat="22.397642525362713" lon="103.8415394317982">
        <ele>1281.2671682949942</ele>
      </trkpt>
      <trkpt lat="22.397641807873853" lon="103.84353591131867">
        <ele>1272.3221849497243</ele>
      </trkpt>
      <trkpt lat="22.398182798949737" lon="103.84573947779444">
        <ele>1268.831582864045</ele>
      </trkpt>
      <trkpt lat="22.396957220680537" lon="103.84659735586389">
        <ele>1263.4082384896758</ele>
      </trkpt>
      <trkpt lat="22.395178355118905" lon="103.8475954010611">
        <ele>1271.2422100209922</ele>
      </trkpt>
      <trkpt lat="22.393283535726834" lon="103.84866085709267">
        <ele>1309.6706961584982</ele>
      </trkpt>
      <trkpt lat="22.39219162770485" lon="103.84963783426241">
        <ele>1346.1557683999513</ele>
      </trkpt>
      <trkpt lat="22.39121120705105" lon="103.85132057268284">
        <ele>1370.8265695154826</ele>
      </trkpt>
      <trkpt lat="22.389728193390713" lon="103.85253382191053">
        <ele>1413.9609542941153</ele>
      </trkpt>
      <trkpt lat="22.38826049326503" lon="103.85352641778915">
        <ele>1401.7616525714982</ele>
      </trkpt>
      <trkpt lat="22.388564555285132" lon="103.85500397174897">
        <ele>1445.0069636482763</ele>
      </trkpt>
      <trkpt lat="22.387343902048375" lon="103.85663073196775">
        <ele>1444.3943393900902</ele>
      </trkpt>
      <trkpt lat="22.38581279520841" lon="103.85811100299475">
        <ele>1418.3405282750339</ele>
      </trkpt>
      <trkpt lat="22.384266549486355" lon="103.85861081868579">
        <ele>1469.803911542359</ele>
      </trkpt>
      <trkpt lat="22.38264189650126" lon="103.8598">
        <ele>1488.6646830724667</ele>
      </trkpt>
      <trkpt lat="22.381165513399047" lon="103.86018882369477">
        <ele>1527.7705643966028</ele>
      </trkpt>
      <trkpt lat="22.3794852098225" lon="103.86099512476487">
        <ele>1563.129664400517</ele>
      </trkpt>
      <trkpt lat="22.377391877465126" lon="103.860801">
        <ele>1514.69390571245</ele>
      </trkpt>
      <trkpt lat="22.375833700656575" lon="103.86024665789323">
        <ele>1499.4366538305621</ele>
      </trkpt>
      <trkpt lat="22.37586442574006" lon="103.86243345915385">
        <ele>1491.1072540344228</ele>
      </trkpt>
      <trkpt lat="22.37625086231171" lon="103.86392687482883">
        <ele>1464.6415249695074</ele>
      </trkpt>
      <trkpt lat="22.376125080833884" lon="103.86609848683256">
        <ele>1420.1076057879475</ele>
      </trkpt>
      <trkpt lat="22.37487808514539" lon="103.86786338755192">
        <ele>1359.8127621399797</ele>
      </trkpt>
      <trkpt lat="22.373377863042336" lon="103.86753907669629">
        <ele>1301.5863996111234</ele>
      </trkpt>
      <trkpt lat="22.371384000967662" lon="103.86805918468343">
        <ele>1310.9637475067634</ele>
      </trkpt>
      <trkpt lat="22.370122634196722" lon="103.8673335487049">
        <ele>1304.265253424811</ele>
      </trkpt>
      <trkpt lat="22.368368140455992" lon="103.86642745108033">
        <ele>1297.224328236381</ele>
      </trkpt>
      <trkpt lat="22.366934185157408" lon="103.86516385819598">
        <ele>1286.258446005828</ele>
      </trkpt>
      <trkpt lat="22.3679782989266" lon="103.86689167336492">
        <ele>1269.0355989694663</ele>
      </trkpt>
      <trkpt lat="22.36696947655519" lon="103.86808093718663">
        <ele>1250.0409202486148</ele>
      </trkpt>
      <trkpt lat="22.36799299506445" lon="103.86924799177409">
        <ele>1241.7745274038994</ele>
      </trkpt>
      <trkpt lat="22.369055584458017" lon="103.87051458445802">
        <ele>1291.9924216395111</ele>
      </trkpt>
      <trkpt lat="22.367481129315404" lon="103.87118574136919">
        <ele>1326.6552413954748</ele>
      </trkpt>
      <trkpt lat="22.366858" lon="103.87311882066129">
        <ele>1359.7673073507526</ele>
      </trkpt>
      <trkpt lat="22.36595822375996" lon="103.87471251518676">
        <ele>1409.4765316060145</ele>
      </trkpt>
      <trkpt lat="22.36454605898731" lon="103.87601213891831">
        <ele>1412.5285083348774</ele>
      </trkpt>
      <trkpt lat="22.364895704955416" lon="103.87728878678556">
        <ele>1466.7851980512212</ele>
      </trkpt>
      <trkpt lat="22.363694194678924" lon="103.87915354315365">
        <ele>1509.9137647674913</ele>
      </trkpt>
      <trkpt lat="22.363639503593276" lon="103.88132137987766">
        <ele>1531.2220095353996</ele>
      </trkpt>
      <trkpt lat="22.362298" lon="103.88277253708269">
        <ele>1544.3720927834643</ele>
      </trkpt>
      <trkpt lat="22.36167852404904" lon="103.88478743036781">
        <ele>1569.3007264098526</ele>
      </trkpt>
      <trkpt lat="22.36016565011549" lon="103.88602100249177">
        <ele>1608.4479888083363</ele>
      </trkpt>
      <trkpt lat="22.35829794989134" lon="103.88706753758149">
        <ele>1631.423707663442</ele>
      </trkpt>
      <trkpt lat="22.35648946453464" lon="103.88590345389865">
        <ele>1641.4042452996102</ele>
      </trkpt>
      <trkpt lat="22.35462751296833" lon="103.88507792671881">
        <ele>1659.988071875171</ele>
      </trkpt>
      <trkpt lat="22.353426627050236" lon="103.88356470665192">
        <ele>1643.4073813767284</ele>
      </trkpt>
      <trkpt lat="22.351573458136624" lon="103.88315422166153">
        <ele>1651.7897593457214</ele>
      </trkpt>
      <trkpt lat="22.350098187774265" lon="103.8821602736674">
        <ele>1625.279802690217</ele>
      </trkpt>
      <trkpt lat="22.348106189586762" lon="103.88219127880876">
        <ele>1611.1880437867933</ele>
      </trkpt>
      <trkpt lat="22.34649940917125" lon="103.8824400605525">
        <ele>1615.115042509758</ele>
      </trkpt>
      <trkpt lat="22.344472988320348" lon="103.88321250583982">
        <ele>1633.6392549312668</ele>
      </trkpt>
      <trkpt lat="22.34236848197165" lon="103.88363431475355">
        <ele>1669.1410462250876</ele>
      </trkpt>
      <trkpt lat="22.340604459773388" lon="103.88451683465895">
        <ele>1697.4704849737218</ele>
      </trkpt>
      <trkpt lat="22.339572099552857" lon="103.88577731281019">
        <ele>1726.9610681622723</ele>
      </trkpt>
      <trkpt lat="22.337453374196958" lon="103.88528732165801">
        <ele>1735.3913394013532</ele>
      </trkpt>
      <trkpt lat="22.33564725519545" lon="103.88525106234542">
        <ele>1753.057080076748</ele>
      </trkpt>
      <trkpt lat="22.33388640623755" lon="103.88564212396373">
        <ele>1755.8914400499111</ele>
      </trkpt>
      <trkpt lat="22.331714320234607" lon="103.88598003431085">
        <ele>1714.5269962213983</ele>
      </trkpt>
      <trkpt lat="22.329878" lon="103.8867290564867">
        <ele>1752.2401585467458</ele>
      </trkpt>
      <trkpt lat="22.327931798327995" lon="103.88750150519388">
        <ele>1747.0174674462194</ele>
      </trkpt>
      <trkpt lat="22.325967137239523" lon="103.88782757719723">
        <ele>1725.8639586311006</ele>
      </trkpt>
      <trkpt lat="22.325019465170154" lon="103.88982042519915">
        <ele>1711.6470056879284</ele>
      </trkpt>
      <trkpt lat="22.323964761497443" lon="103.89131265133675">
        <ele>1674.3965687608707</ele>
      </trkpt>
      <trkpt lat="22.322339004690704" lon="103.89231400521189">
        <ele>1633.180567888543</ele>
      </trkpt>
      <trkpt lat="22.321879719503524" lon="103.89352559751764">
        <ele>1610.5055600704009</ele>
      </trkpt>
      <trkpt lat="22.320889869457" lon="103.89526182635748">
        <ele>1567.2781923616312</ele>
      </trkpt>
      <trkpt lat="22.319630008770506" lon="103.89488712609632">
        <ele>1543.4334837850313</ele>
      </trkpt>
      <trkpt lat="22.318622439070907" lon="103.89655910541565">
        <ele>1523.3729923893804</ele>
      </trkpt>
      <trkpt lat="22.317318431092275" lon="103.89778323361374">
        <ele>1504.7573592442666</ele>
      </trkpt>
      <trkpt lat="22.315436070007994" lon="103.898831258751">
        <ele>1464.9162342144882</ele>
      </trkpt>
      <trkpt lat="22.315516178879182" lon="103.90071644420307">
        <ele>1443.2987180024604</ele>
      </trkpt>
      <trkpt lat="22.314510458785108" lon="103.90279904791666">
        <ele>1445.8642788238792</ele>
      </trkpt>
      <trkpt lat="22.31334308650754" lon="103.90460440624348">
        <ele>1446.5610537707523</ele>
      </trkpt>
      <trkpt lat="22.31140681327415" lon="103.90478478593616">
        <ele>1404.3056392624756</ele>
      </trkpt>
      <trkpt lat="22.310775234238026" lon="103.90543199876173">
        <ele>1348.6722445018363</ele>
      </trkpt>
      <trkpt lat="22.3101429496281" lon="103.90630315447646">
        <ele>1297.358953226194</ele>
      </trkpt>
      <trkpt lat="22.309093902900987" lon="103.90642150904249">
        <ele>1237.6353634255988</ele>
      </trkpt>
      <trkpt lat="22.309241480853036" lon="103.90762810260135">
        <ele>1226.3049851111937</ele>
      </trkpt>
      <trkpt lat="22.307414044781257" lon="103.90794395521874">
        <ele>1170.982904772271</ele>
      </trkpt>
      <trkpt lat="22.305989459659287" lon="103.90954821391823">
        <ele>1155.9364840626056</ele>
      </trkpt>
      <trkpt lat="22.30473705313467" lon="103.91145957731231">
        <ele>1164.299498565819</ele>
      </trkpt>
      <trkpt lat="22.303097271460814" lon="103.91298354827973">
        <ele>1150.0592003698569</ele>
      </trkpt>
      <trkpt lat="22.302695563537153" lon="103.91514521419207">
        <ele>1153.3206667950715</ele>
      </trkpt>
      <trkpt lat="22.302138481856677" lon="103.9171657530239">
        <ele>1144.4041497995763</ele>
      </trkpt>
      <trkpt lat="22.301954950473316" lon="103.91904695047332">
        <ele>1181.3506375947468</ele>
      </trkpt>
      <trkpt lat="22.301482928547358" lon="103.92062922129065">
        <ele>1203.900317092919</ele>
      </trkpt>
      <trkpt lat="22.300556748243935" lon="103.92170992799852">
        <ele>1196.7750174156022</ele>
      </trkpt>
      <trkpt lat="22.300098906757665" lon="103.92343242689428">
        <ele>1199.6623254480378</ele>
      </trkpt>
      <trkpt lat="22.29928637732651" lon="103.92482693773266">
        <ele>1211.2925670639645</ele>
      </trkpt>
      <trkpt lat="22.29765838324634" lon="103.92580861675366">
        <ele>1183.3338589555317</ele>
      </trkpt>
      <trkpt lat="22.29754854073608" lon="103.92778437779175">
        <ele>1216.0421464293327</ele>
      </trkpt>
      <trkpt lat="22.296175973004676" lon="103.92939085861323">
        <ele>1213.0450730156729</ele>
      </trkpt>
      <trkpt lat="22.294768155055014" lon="103.93107783633081">
        <ele>1237.48161381644</ele>
      </trkpt>
      <trkpt lat="22.293125496659364" lon="103.93251201336254">
        <ele>1267.5832917155606</ele>
      </trkpt>
      <trkpt lat="22.29184575654081" lon="103.93397760384354">
        <ele>1307.0109230213948</ele>
      </trkpt>
      <trkpt lat="22.290979180519855" lon="103.93611127792059">
        <ele>1324.1271229962658</ele>
      </trkpt>
      <trkpt lat="22.290777597363554" lon="103.93828092079093">
        <ele>1331.3914174785443</ele>
      </trkpt>
      <trkpt lat="22.290118198581954" lon="103.94046268895553">
        <ele>1346.7090392797375</ele>
      </trkpt>
      <trkpt lat="22.289863288970324" lon="103.94273925478193">
        <ele>1390.4711484102152</ele>
      </trkpt>
      <trkpt lat="22.289255028537863" lon="103.94465269996084">
        <ele>1398.2514377279497</ele>
      </trkpt>
      <trkpt lat="22.29075642216302" lon="103.94534610395738">
        <ele>1416.2514407410413</ele>
      </trkpt>
      <trkpt lat="22.292087241279535" lon="103.9470471251079">
        <ele>1399.7989166307968</ele>
      </trkpt>
      <trkpt lat="22.29377" lon="103.94811120195745">
        <ele>1365.048548238851</ele>
      </trkpt>
      <trkpt lat="22.294267152031207" lon="103.94673106889263">
        <ele>1331.6741297153114</ele>
      </trkpt>
      <trkpt lat="22.295116079677424" lon="103.94870308833332">
        <ele>1265.0971598668464</ele>
      </trkpt>
      <trkpt lat="22.295847317858016" lon="103.94874758000488">
        <ele>1230.2705501474597</ele>
      </trkpt>
      <trkpt lat="22.29476350225027" lon="103.9503631224122">
        <ele>1187.1253474379914</ele>
      </trkpt>
      <trkpt lat="22.293443023321014" lon="103.95144744709916">
        <ele>1145.2381215367561</ele>
      </trkpt>
      <trkpt lat="22.29184060677739" lon="103.95206441240286">
        <ele>1125.783117868773</ele>
      </trkpt>
      <trkpt lat="22.291829232601433" lon="103.95372689823688">
        <ele>1084.6375361705084</ele>
      </trkpt>
      <trkpt lat="22.290765039110255" lon="103.95558266790242">
        <ele>1069.3034642394102</ele>
      </trkpt>
      <trkpt lat="22.2905036314119" lon="103.95698763822053">
        <ele>1026.9111048183127</ele>
      </trkpt>
      <trkpt lat="22.288861765913964" lon="103.95809758635606">
        <ele>1000.9385169438302</ele>
      </trkpt>
      <trkpt lat="22.28774640586507" lon="103.95977290271263">
        <ele>967.0745372587056</ele>
      </trkpt>
      <trkpt lat="22.285841181374394" lon="103.96064758235073">
        <ele>965.044185485568</ele>
      </trkpt>
      <trkpt lat="22.28405081388879" lon="103.96210344362146">
        <ele>957.6026320208894</ele>
      </trkpt>
      <trkpt lat="22.282524863313622" lon="103.96072055755576">
        <ele>965.6776264219833</ele>
      </trkpt>
      <trkpt lat="22.281340720646472" lon="103.96250249081584">
        <ele>964.560731747712</ele>
      </trkpt>
      <trkpt lat="22.28020856743363" lon="103.96409636265489">
        <ele>963.1697771894085</ele>
      </trkpt>
      <trkpt lat="22.278378067505997" lon="103.96433302759178">
        <ele>964.8571735152392</ele>
      </trkpt>
      <trkpt lat="22.2771324638334" lon="103.96576777020498">
        <ele>952.8751529269036</ele>
      </trkpt>
      <trkpt lat="22.276212" lon="103.966778">
        <ele>946.5012871692037</ele>
      </trkpt>
    </trkseg>
  </trk>
</gpx>